COSMOS 2419 (714)       
1 28915U 05050A   17008.16182359 -.00000029  00000-0  00000+0 0  9997
2 28915  65.4181  71.2478 0014914 349.2916  82.3088  2.13108998 85928
COSMOS 2425 (716)       
1 29670U 06062A   17008.10096713 -.00000048  00000-0  10000-3 0  9998
2 29670  65.5403 310.2589 0022686 341.5890  98.2236  2.13105008 78129
COSMOS 2426 (717)       
1 29671U 06062B   17008.32487625 -.00000049  00000-0  10000-3 0  9990
2 29671  65.5575 310.3375 0015966 171.1918 299.8529  2.13103142 78137
COSMOS 2424 (715)       
1 29672U 06062C   17007.71941729 -.00000045  00000-0  10000-3 0  9999
2 29672  65.5421 310.2826 0015323 169.9151  12.4192  2.13102140 78119
COSMOS 2433 (720)       
1 32275U 07052A   17007.65421318 -.00000029  00000-0  10000-3 0  9994
2 32275  65.4327  71.0400 0003636 254.4428  34.8095  2.13104985 71625
COSMOS 2432 (719)       
1 32276U 07052B   17008.05618424 -.00000029  00000-0  10000-3 0  9996
2 32276  65.4452  71.0953 0011452 329.9305 220.9765  2.13104117 71635
COSMOS 2434 (721)       
1 32393U 07065A   17007.72866399 -.00000046  00000-0  00000+0 0  9993
2 32393  65.1572 309.4967 0001911 106.2403 130.6709  2.13102884 70332
COSMOS 2436 (723)       
1 32395U 07065C   17008.13298242 -.00000048  00000-0  10000-3 0  9994
2 32395  65.1673 309.5265 0015959 353.3058 241.6688  2.13104342 70279
COSMOS 2443 (725)       
1 33379U 08046B   17007.55234810 -.00000029  00000-0  00000+0 0  9997
2 33379  65.3615  70.4405 0016356 187.7697 285.7589  2.13101829 64493
COSMOS 2456 (730)       
1 36111U 09070A   17008.17353668  .00000117  00000-0  00000+0 0  9991
2 36111  64.1808 189.0488 0003354 350.8178  37.8779  2.13102986 55010
COSMOS 2457 (733)       
1 36112U 09070B   17007.27268167  .00000123  00000-0  00000+0 0  9998
2 36112  64.1618 189.0019 0007273 147.3387  39.5628  2.13101671 54993
COSMOS 2458 (734)       
1 36113U 09070C   17008.06848515  .00000118  00000-0  10000-3 0  9997
2 36113  64.1671 188.9819 0003124  60.7397  64.3842  2.13102004 55018
COSMOS 2459 (731)       
1 36400U 10007A   17007.54588032 -.00000029  00000-0  10000-3 0  9997
2 36400  65.3412  70.1686 0027243 350.3882  79.2401  2.13102258 53354
COSMOS 2461 (735)       
1 36401U 10007B   17008.49721986 -.00000027  00000-0  10000-3 0  9998
2 36401  65.3349  70.1168 0005212  72.5081 277.5500  2.13102219 53366
COSMOS 2460 (732)       
1 36402U 10007C   17007.44254628 -.00000029  00000-0  10000-3 0  9999
2 36402  65.3247  70.1286 0000964 236.1303  66.3724  2.13101844 53342
COSMOS 2465 (737)       
1 37138U 10041B   17008.36666216 -.00000050  00000-0  00000+0 0  9995
2 37138  64.7545 309.5433 0034383 174.4031 235.4380  2.13103857 49449
COSMOS 2464 (736)       
1 37139U 10041C   17007.35375060 -.00000044  00000-0  00000+0 0  9991
2 37139  64.7635 309.5775 0023393   7.2275 169.7821  2.13102672 49422
COSMOS 2471 (701K)      
1 37372U 11009A   17007.48541870 -.00000029  00000-0  00000+0 0  9996
2 37372  65.3227  70.0754 0008704 234.8304 233.8462  2.13102902 45620
COSMOS 2474 (742)       
1 37829U 11055A   17008.12058890  .00000119  00000-0  00000+0 0  9990
2 37829  64.5045 189.5487 0005817 243.3466 325.2185  2.13101971 41002
COSMOS 2476 (744)       
1 37867U 11064A   17007.84348429  .00000121  00000-0  00000+0 0  9993
2 37867  64.4840 189.6339 0014979 241.3837 160.4864  2.13102036 40355
COSMOS 2477 (745)       
1 37868U 11064B   17007.37814852  .00000123  00000-0  00000+0 0  9992
2 37868  64.4924 189.6922 0012895 242.4053 341.7035  2.13101903 40293
COSMOS 2475 (743)       
1 37869U 11064C   17007.67321417  .00000122  00000-0  00000+0 0  9995
2 37869  64.5002 189.6722 0017788 274.2633 132.5257  2.13102123 40313
COSMOS 2485 (747)       
1 39155U 13019A   17007.73814535  .00000122  00000-0  00000+0 0  9992
2 39155  64.6541 189.6324 0015478 235.3236 130.8240  2.13102073 28820
COSMOS 2492 (754)       
1 39620U 14012A   17008.05792701 -.00000029  00000-0  10000-3 0  9991
2 39620  65.2144  70.0649 0014985 326.9885 318.2473  2.13103531 21772
COSMOS 2500 (755)       
1 40001U 14032A   17007.45236766 -.00000030  00000-0  00000+0 0  9992
2 40001  65.1547  70.0951 0007056 211.2976 192.7332  2.13102837 19984
COSMOS 2501 (702K)      
1 40315U 14075A   17007.80868832 -.00000048  00000-0  00000+0 0  9990
2 40315  64.4898 310.9600 0015102 215.5674 269.8387  2.13100592 16397
COSMOS 2514 (751)       
1 41330U 16008A   17008.07276649 -.00000029  00000-0  00000+0 0  9994
2 41330  64.9562  70.2579 0010356 218.4235 121.1341  2.13103466  7157
COSMOS 2516 (753)       
1 41554U 16032A   17007.65398956 -.00000046  00000-0  00000+0 0  9997
2 41554  64.7093 310.6842 0012376 232.3428  39.4527  2.13101685  4750
